NORAD_CAT_ID,OBJECT_NAME,OBJECT_TYPE,EPOCH,MEAN_MOTION,ECCENTRICITY,INCLINATION,RA_OF_ASC_NODE,ARG_OF_PERICENTER,MEAN_ANOMALY,BSTAR,MEAN_MOTION_DOT,MEAN_MOTION_DDOT,TLE_LINE0,TLE_LINE1,TLE_LINE2,SEMIMAJOR_AXIS,PERIOD,APOGEE,PERIGEE,DECAYED
55399.0,STARLINK-5276,PAYLOAD,2023-05-05 05:12:27,15.69919763,0.0003528,69.9959,186.7183,266.3876,93.6917,1.6339e-05,1.752e-05,0.0,0 STARLINK-5276,1 55399U 23014J   23125.21698945  .00001752  00000-0  16339-4 0  9999,2 55399  69.9959 186.7183 0003528 266.3876  93.6917 15.69919763 14882,6737.264,91.724,361.505,356.752,0.0
55399.0,STARLINK-5276,PAYLOAD,2023-05-05 15:54:43,15.69929218,0.0003442,69.996,185.4645,265.2632,94.8171,2.745e-06,1.17e-06,0.0,0 STARLINK-5276,1 55399U 23014J   23125.66300297  .00000117  00000-0  27450-5 0  9999,2 55399  69.9960 185.4645 0003442 265.2632  94.8171 15.69929218 15899,6737.237,91.724,361.42,356.783,0.0
55399.0,STARLINK-5276,PAYLOAD,2023-05-06 13:19:15,15.69927959,0.000313,69.9966,182.9557,267.5723,92.5114,1.5787e-05,1.686e-05,0.0,0 STARLINK-5276,1 55399U 23014J   23126.55503599  .00001686  00000-0  15787-4 0  9999,2 55399  69.9966 182.9557 0003130 267.5723  92.5114 15.69927959 16038,6737.24,91.724,361.214,356.996,0.0
55399.0,STARLINK-5276,PAYLOAD,2023-05-07 03:05:01,15.69926838,0.0002839,69.9982,181.3479,272.3207,87.7663,1.3631e-05,1.427e-05,0.0,0 STARLINK-5276,1 55399U 23014J   23127.12848835  .00001427  00000-0  13631-4 0  9997,2 55399  69.9982 181.3479 0002839 272.3207  87.7663 15.69926838 15183,6737.243,91.724,361.021,357.196,0.0
55399.0,STARLINK-5276,PAYLOAD,2023-05-07 12:15:33,15.69909307,0.0003254,69.997,180.2695,263.9442,96.1383,-1.138e-05,-1.58e-05,0.0,0 STARLINK-5276,1 55399U 23014J   23127.51080516 -.00001580  00000-0 -11380-4 0  9995,2 55399  69.9970 180.2695 0003254 263.9442  96.1383 15.69909307 15249,6737.293,91.725,361.351,356.966,0.0
55399.0,STARLINK-5276,PAYLOAD,2023-05-07 13:47:18,15.69911767,0.0003252,69.9977,180.091,264.1053,95.9772,-8.3274e-06,-1.213e-05,0.0,0 STARLINK-5276,1 55399U 23014J   23127.57452018 -.00001213  00000-0 -83274-5 0  9996,2 55399  69.9977 180.0910 0003252 264.1053  95.9772 15.69911767 16190,6737.286,91.725,361.342,356.96,0.0
55399.0,STARLINK-5276,PAYLOAD,2023-05-08 05:04:48,15.69932601,0.0003696,69.9963,178.2981,264.6125,95.4649,6.6399e-06,5.86e-06,0.0,0 STARLINK-5276,1 55399U 23014J   23128.21167122  .00000586  00000-0  66399-5 0  9996,2 55399  69.9963 178.2981 0003696 264.6125  95.4649 15.69932601 15354,6737.227,91.724,361.582,356.602,0.0
55399.0,STARLINK-5276,PAYLOAD,2023-05-08 15:47:04,15.69931981,0.000345,69.9964,177.0446,261.2895,98.791,7.1504e-06,6.47e-06,0.0,0 STARLINK-5276,1 55399U 23014J   23128.65768642  .00000647  00000-0  71504-5 0  9990,2 55399  69.9964 177.0446 0003450 261.2895  98.7910 15.69931981 16362,6737.229,91.724,361.418,356.769,0.0
55399.0,STARLINK-5276,PAYLOAD,2023-05-09 13:11:36,15.69915391,0.0002852,69.998,174.5366,261.0343,99.053,1.7866e-05,1.935e-05,0.0,0 STARLINK-5276,1 55399U 23014J   23129.54973277  .00001935  00000-0  17866-4 0  9992,2 55399  69.9980 174.5366 0002852 261.0343  99.0530 15.69915391 15564,6737.276,91.725,361.063,357.22,0.0
55399.0,STARLINK-5276,PAYLOAD,2023-05-10 12:07:53,15.69929557,0.0002915,69.998,171.8503,267.4271,92.6591,2.714e-06,1.14e-06,0.0,0 STARLINK-5276,1 55399U 23014J   23130.50547712  .00000114  00000-0  27140-5 0  9996,2 55399  69.9980 171.8503 0002915 267.4271  92.6591 15.69929557 16653,6737.236,91.724,361.064,357.137,0.0
55399.0,STARLINK-5276,PAYLOAD,2023-05-10 19:46:38,15.69931182,0.0003038,69.9975,170.9536,268.4928,91.592,1.9487e-06,2.2e-07,0.0,0 STARLINK-5276,1 55399U 23014J   23130.82405883  .00000022  00000-0  19487-5 0  9996,2 55399  69.9975 170.9536 0003038 268.4928  91.5920 15.69931182 16707,6737.231,91.724,361.143,357.049,0.0
55399.0,STARLINK-5276,PAYLOAD,2023-05-11 11:04:10,15.69915726,0.0003334,69.9978,169.1637,267.0252,93.0562,-5.2339e-06,-8.42e-06,0.0,0 STARLINK-5276,1 55399U 23014J   23131.46123759 -.00000842  00000-0 -52339-5 0  9991,2 55399  69.9978 169.1637 0003334 267.0252  93.0562 15.69915726 15867,6737.275,91.725,361.386,356.894,0.0
55399.0,STARLINK-5276,PAYLOAD,2023-05-11 20:14:40,15.6992788,0.0003649,69.9985,168.0882,266.4792,93.5987,1.1582e-05,1.18e-05,0.0,0 STARLINK-5276,1 55399U 23014J   23131.84352598  .00001180  00000-0  11582-4 0  9996,2 55399  69.9985 168.0882 0003649 266.4792  93.5987 15.69927880 16867,6737.24,91.724,361.564,356.647,0.0
55399.0,STARLINK-5276,PAYLOAD,2023-05-12 03:53:26,15.69928191,0.0003177,69.9974,167.1921,269.284,90.7992,7.704e-06,7.14e-06,0.0,0 STARLINK-5276,1 55399U 23014J   23132.16211173  .00000714  00000-0  77040-5 0  9999,2 55399  69.9974 167.1921 0003177 269.2840  90.7992 15.69928191 16917,6737.239,91.724,361.245,356.964,0.0
55399.0,STARLINK-5276,PAYLOAD,2023-05-12 19:10:57,15.69924684,0.0003246,69.9971,165.4011,269.6267,90.4556,6.5599e-06,5.76e-06,0.0,0 STARLINK-5276,1 55399U 23014J   23132.79928047  .00000576  00000-0  65599-5 0  9995,2 55399  69.9971 165.4011 0003246 269.6267  90.4556 15.69924684 16072,6737.249,91.724,361.301,356.928,0.0
55399.0,STARLINK-5276,PAYLOAD,2023-05-13 12:00:14,15.69923841,0.0003351,69.9962,163.4305,267.9586,92.1226,-7.6314e-06,-1.13e-05,0.0,0 STARLINK-5276,1 55399U 23014J   23133.50016769 -.00001130  00000-0 -76314-5 0  9990,2 55399  69.9962 163.4305 0003351 267.9586  92.1226 15.69923841 17122,6737.252,91.724,361.375,356.859,0.0
55399.0,STARLINK-5276,PAYLOAD,2023-05-14 04:49:30,15.69925723,0.0003422,69.9963,161.4606,266.7286,93.3518,5.711e-06,4.74e-06,0.0,0 STARLINK-5276,1 55399U 23014J   23134.20104791  .00000474  00000-0  57110-5 0  9992,2 55399  69.9963 161.4606 0003422 266.7286  93.3518 15.69925723 16293,6737.247,91.724,361.417,356.806,0.0
55399.0,STARLINK-5276,PAYLOAD,2023-05-14 10:56:30,15.6992631,0.0003167,69.9966,160.7432,265.0814,95.0021,8.8599e-06,8.53e-06,0.0,0 STARLINK-5276,1 55399U 23014J   23134.45591365  .00000853  00000-0  88599-5 0  9992,2 55399  69.9966 160.7432 0003167 265.0814  95.0021 15.69926310 17270,6737.245,91.724,361.244,356.976,0.0
55399.0,STARLINK-5276,PAYLOAD,2023-05-15 05:17:32,15.69925635,0.0002745,69.9981,158.5949,251.6911,108.3986,1.0228e-06,-8.9e-07,0.0,0 STARLINK-5276,1 55399U 23014J   23135.22051645 -.00000089  00000-0  10228-5 0  9996,2 55399  69.9981 158.5949 0002745 251.6911 108.3986 15.69925635 16451,6737.247,91.724,360.961,357.262,0.0
55399.0,STARLINK-5276,PAYLOAD,2023-05-15 11:24:33,15.6991624,0.0002833,69.9968,157.8755,277.4318,82.6555,5.413e-06,4.38e-06,0.0,0 STARLINK-5276,1 55399U 23014J   23135.47539066  .00000438  00000-0  54130-5 0  9998,2 55399  69.9968 157.8755 0002833 277.4318  82.6555 15.69916240 16490,6737.274,91.725,361.047,357.23,0.0
55399.0,STARLINK-5276,PAYLOAD,2023-05-15 19:03:19,15.69916648,0.0003521,69.9965,156.9814,267.055,93.0243,1.0455e-05,1.044e-05,0.0,0 STARLINK-5276,1 55399U 23014J   23135.79397124  .00001044  00000-0  10455-4 0  9995,2 55399  69.9965 156.9814 0003521 267.0550  93.0243 15.69916648 17483,6737.272,91.725,361.51,356.765,0.0
55399.0,STARLINK-5276,PAYLOAD,2023-05-16 10:20:50,15.6992587,0.0002878,69.9977,155.1913,263.6904,96.3963,6.0123e-06,5.1e-06,0.0,0 STARLINK-5276,1 55399U 23014J   23136.43113543  .00000510  00000-0  60123-5 0  9993,2 55399  69.9977 155.1913 0002878 263.6904  96.3963 15.69925870 16645,6737.246,91.724,361.05,357.172,0.0
55399.0,STARLINK-5276,PAYLOAD,2023-05-16 11:52:35,15.69923328,0.0002756,69.998,155.0118,263.114,96.9743,6.5805e-06,5.79e-06,0.0,0 STARLINK-5276,1 55399U 23014J   23136.49485246  .00000579  00000-0  65805-5 0  9998,2 55399  69.9980 155.0118 0002756 263.1140  96.9743 15.69923328 17590,6737.253,91.724,360.975,357.262,0.0
55399.0,STARLINK-5276,PAYLOAD,2023-05-17 10:48:52,15.69927817,0.0002519,69.9979,152.3239,263.8695,96.2214,-1.2652e-05,-1.733e-05,0.0,0 STARLINK-5276,1 55399U 23014J   23137.45060564 -.00001733  00000-0 -12652-4 0  9993,2 55399  69.9979 152.3239 0002519 263.8695  96.2214 15.69927817 16807,6737.241,91.724,360.803,357.408,0.0
55399.0,STARLINK-5276,PAYLOAD,2023-05-18 11:16:53,15.69927923,0.0003022,69.999,149.4614,254.482,105.6042,5.7185e-06,4.75e-06,0.0,0 STARLINK-5276,1 55399U 23014J   23138.47006749  .00000475  00000-0  57185-5 0  9992,2 55399  69.9990 149.4614 0003022 254.4820 105.6042 15.69927923 16969,6737.24,91.724,361.141,357.069,0.0
55399.0,STARLINK-5276,PAYLOAD,2023-05-18 12:48:39,15.69920794,0.0002724,69.9988,149.2792,274.2334,85.855,1.0851e-06,-8.2e-07,0.0,0 STARLINK-5276,1 55399U 23014J   23138.53379087 -.00000082  00000-0  10851-5 0  9991,2 55399  69.9988 149.2792 0002724 274.2334  85.8550 15.69920794 17917,6737.261,91.724,360.961,357.29,0.0
55399.0,STARLINK-5276,PAYLOAD,2023-05-19 08:41:25,15.69926917,0.0003277,69.9974,146.95,258.1418,101.941,1.1978e-05,1.228e-05,0.0,0 STARLINK-5276,1 55399U 23014J   23139.36210092  .00001228  00000-0  11978-4 0  9995,2 55399  69.9974 146.9500 0003277 258.1418 101.9410 15.69926917 17100,6737.243,91.724,361.316,356.9,0.0
55399.0,STARLINK-5276,PAYLOAD,2023-05-19 17:51:57,15.69916393,0.0003362,69.9975,145.8744,264.4761,95.6051,-1.1931e-06,-3.56e-06,0.0,0 STARLINK-5276,1 55399U 23014J   23139.74441157 -.00000356  00000-0 -11931-5 0  9998,2 55399  69.9975 145.8744 0003362 264.4761  95.6051 15.69916393 17168,6737.273,91.725,361.403,356.873,0.0
55399.0,STARLINK-5276,PAYLOAD,2023-05-20 03:02:26,15.69931889,0.0003155,69.9998,144.8027,261.3339,98.7499,9.1595e-06,8.89e-06,0.0,0 STARLINK-5276,1 55399U 23014J   23140.12670029  .00000889  00000-0  91595-5 0  9997,2 55399  69.9998 144.8027 0003155 261.3339  98.7499 15.69931889 17227,6737.229,91.724,361.219,356.968,0.0
55399.0,STARLINK-5276,PAYLOAD,2023-05-20 09:09:26,15.69938691,0.0003331,69.9988,144.0852,259.8142,100.2678,1.1962e-05,1.227e-05,0.0,0 STARLINK-5276,1 55399U 23014J   23140.38156083  .00001227  00000-0  11962-4 0  9990,2 55399  69.9988 144.0852 0003331 259.8142 100.2678 15.69938691 17264,6737.209,91.723,361.319,356.83,0.0
